{"type":"FeatureCollection","features":[{"type":"Feature","properties":{"name":"Osorno","comuna":"Osorno","cut":"10301","metro":null,"es_bbox":false},"geometry":{"type":"Polygon","coordinates":[[[-73.1808,-40.6347],[-73.1873,-40.6309],[-73.2013,-40.6421],[-73.2126,-40.6433],[-73.21757142857143,-40.6469],[-73.2315,-40.6469],[-73.2315,-40.53412266666667],[-73.2253,-40.5359],[-73.2131,-40.5359],[-73.2056,-40.5265],[-73.1789,-40.5275],[-73.1712,-40.5181],[-73.1754,-40.513],[-73.16936853932584,-40.5008],[-73.06766268656716,-40.5008],[-73.0673,-40.5035],[-73.0394,-40.50106635514019],[-73.0394,-40.6469],[-73.1737,-40.6469],[-73.1808,-40.6347]]]}}]}